FLOCK 4G-21             
1 62651U 25009AU  26068.19487675  .00013648  00000+0  49619-3 0  9998
2 62651  97.4032 151.1274 0000465 329.5782  30.5431 15.28381075 63677
STARLINK-33693          
1 63409U 25065L   26068.52060597  .00034170  00000+0  12444-2 0  9997
2 63409  43.0001 108.0642 0001489 277.6546  82.4136 15.27608182 52812
